TOMORROW-S1             
1 60479U 24149M   26068.72470524  .00008620  00000+0  28856-3 0  9996
2 60479  97.3791 149.6044 0001819 207.2040 152.9106 15.31198362 86867
STARLINK-35394          
1 66023U 25232U   26068.52807082  .00033575  00000+0  11406-2 0  9991
2 66023  53.1578 104.4580 0001270  93.3560 266.7586 15.30199264 23416
